long,lat,name,address
-86.58991106,34.71215649,Huntsville,"2501 Memorial Pkwy SW, Huntsville, AL 35801"
-88.1509729,30.6771039,Mobile,"3968 Airport Blvd, Mobile, AL 36608"
-86.752324,33.460088,Mountain Brook,"3100 Cahaba Village Plaza, Birmingham, AL 35243"
-86.17268214,32.35859635,Montgomery,"1450 Taylor Rd, Montgomery, AL 36117"
-94.1462,36.1136,Fayetteville,"3425 N College Ave, Fayetteville, AR 72703"
-92.405594,34.750282,Bowman,"501 S Bowman Rd, Little Rock, AR 72211"
-111.784974,34.863536,Sedona,"1420 W State Rte 89A, Sedona, AZ 86336"
-111.641167,35.191661,Flagstaff,"320 S Cambridge Ln, Flagstaff, AZ 86001"
-112.037908,33.506471,Camelback,"4701 N 20th St, Phoenix, AZ 85016"
-111.979056,33.585046,Paradise Valley,"10810 N Tatum Blvd, Phoenix, AZ 85028"
-111.927193,33.653791,Scottsdale,"7111 E Mayo Blvd, Phoenix, AZ 85054"
-111.943,33.4224,Tempe,"750 S Ash Ave, Ste 101, Tempe, AZ 85281"
-111.892871,33.31855144,Chandler,"2955 W Ray Rd, Chandler, AZ 85224"
-110.978349,32.336556,Oracle,"7133 N Oracle Rd, Tucson, AZ 85704"
-110.921476,32.235584,Speedway,"3360 E Speedway Blvd, Tucson, AZ 85716"
-110.8743782,32.27492859,River Road,"5555 E River Rd, Tucson, AZ 85750-1949"
-122.110571,37.398989,Los Altos,"4800 El Camino Real, Los Altos, CA 94022"
-122.159372,37.442281,Palo Alto,"774 Emerson St, Palo Alto, CA 94301"
-122.030499,37.373982,Sunnyvale,"150 E. McKinley Ave., Sunnyvale, CA 94086"
-122.0396621,37.3234975,Cupertino,"20955 Stevens Creek Blvd, Cupertino, CA 95014"
-122.231638,37.482311,Redwood City,"1250 Jefferson Ave, Redwood City, CA 94062"
-121.976,37.3808,Santa Clara,"2732 Augustine Dr , Ste 1600, Santa Clara, CA 95054"
-121.9850735,37.55489857,Fremont - California,"3111 Mowry Ave, Fremont, CA 94538-1505"
-122.291697,37.543935,San Mateo,"1010 Park Pl, San Mateo, CA 94403"
-121.904991,37.332295,San Jose - on The Alameda,"777 The Alameda, San Jose, CA 95126"
-121.9304872,37.29291591,Campbell,"1690 S Bascom Ave, Campbell, CA 95008"
-121.961389,37.23612,Los Gatos,"15980 Los Gatos Blvd, Los Gatos, CA 95032"
-121.8769581,37.24942149,Blossom Hill,"1146 Blossom Hill Rd, San Jose, CA 95118"
-121.8897771,37.70564819,Dublin CA,"5200 Dublin Blvd, Dublin, CA 94568"
-121.961301,37.761759,San Ramon,"100 Sunset Dr, San Ramon, CA 94583"
-122.4543674,37.7237013,Ocean,"1150 Ocean Ave, San Francisco, CA 94112"
-122.260504,37.812934,Oakland,"230 Bay Pl, Oakland, CA 94612"
-122.402825,37.764634,Potrero Hill,"450 Rhode Island St, San Francisco, CA 94107"
-122.430835,37.751914,Noe Valley,"3950 24th St, San Francisco, CA 94114"
-122.399626,37.781155,SoMa,"399 4th St, San Francisco, CA 94107"
-122.427133,37.76861,2001 Market Street,"2001 Market St, San Francisco, CA 94114"
-122.45278,37.769562,Haight Street,"690 Stanyan St, San Francisco, CA 94117"
-122.0145671,36.97883942,Santa Cruz,"911 Soquel Ave, Santa Cruz, CA 95062"
-122.423405,37.789948,Franklin,"1765 California St, San Francisco, CA 94109"
-122.260418,37.855461,Berkeley,"3000 Telegraph Ave, Berkeley, CA 94705"
-121.963562,36.974291,Capitola,"1710 41st Ave, Capitola, CA 95010"
-122.1171121,37.89326688,Lafayette,"3502 Mt Diablo Blvd, Lafayette, CA 94549"
-122.055304,37.892732,Walnut Creek,"1333 Newell Ave, Walnut Creek, CA 94596"
-122.297552,37.880873,Gilman,"1025 Gilman St, Berkeley, CA 94710"
-122.015352,37.925907,Ygnacio Valley Road,"2941 Ygnacio Valley Rd, Walnut Creek, CA 94598"
-122.058839,37.974136,Concord,"2085 Diamond Blvd, Ste 125, Concord, CA 94520"
-122.536231,37.896109,Mill Valley,"414 Miller Ave, Mill Valley, CA 94941"
-122.525902,37.90251522,Blithedale,"731 E Blithedale Ave, Mill Valley, CA 94941"
-122.516766,37.971236,San Rafael,"340 3rd St, San Rafael, CA 94901"
-122.5654436,38.10588079,Novato,"790 De Long Ave, Novato, CA 94945"
-121.90037,36.58338,Monterey,"800 Del Monte Center, Monterey, CA 93940"
-122.462716,38.291326,Sonoma,"201 W Napa St, Sonoma, CA 95476"
-122.30663,38.323501,Napa,"3682 Bel Aire Plaza, Napa, CA 94558"
-122.634423,38.241187,Petaluma,"621 E Washington St, Petaluma, CA 94952"
-122.6745087,38.44240874,Santa Rosa,"1181 Yulupa Ave, Santa Rosa, CA 95405"
-122.824105,38.403778,Sebastopol,"6910 McKinley St, Sebastopol, CA 95472"
-122.7317999,38.45797474,Coddingtown,"390 Coddingtown Mall, Santa Rosa, CA 95401"
-121.363794,38.596639,Sacramento,"4315 Arden Way, Sacramento, CA 95864"
-121.1180005,38.64869286,Folsom,"270 Palladio Pkwy, Folsom, CA 95630"
-121.2672613,38.76733887,Roseville,"1001 Galleria Blvd, Roseville, CA 95678"
-119.805345,36.809279,Fresno,"650 W Shaw Ave, Fresno, CA 93704"
-119.959176,38.9472,South Lake Tahoe,"3600 Lake Tahoe Blvd., South Lake Tahoe, CA 96150"
-120.687432,35.250638,San Luis Obispo,"1531 Froom Ranch Way, San Luis Obispo, CA 93405"
-119.7455127,34.43934579,Santa Barbara,"3761 State St, Santa Barbara, CA 93105"
-119.1793984,34.24025699,Oxnard,"650 Town Center Dr, Oxnard, CA 93036"
-118.555862,34.41244,Valencia,"24130 Valencia Blvd, Santa Clarita, CA 91355"
-118.873257,34.187709,Thousand Oaks,"740 North Moorpark Rd, Thousand Oaks, CA 91360-3705"
-118.574702,34.275797,Porter Ranch,"20209 W Rinaldi St, Porter Ranch, CA 91326"
-118.596933,34.168227,Woodland Hills,"21347 Ventura Blvd, Woodland Hills, CA 91364"
-118.5412289,34.17057666,Tarzana,"18700 Ventura Blvd, Suite 190, Tarzana, CA 91356"
-118.686429,34.038516,Malibu,"23401 Civic Center Way, Malibu, CA 90265"
-118.466601,34.151881,Sherman Oaks West,"4520 N Sepulveda Blvd, Sherman Oaks, CA 91403"
-118.44504,34.15067,Sherman Oaks,"14311 Ventura Blvd, Sherman Oaks, CA 91423"
-118.337861,34.154293,Burbank,"3401 W Olive Ave, Burbank, CA 91505"
-118.467401,34.053675,Brentwood,"11737 San Vicente Blvd, Los Angeles, CA 90049"
-118.4947,34.0328,Montana Avenue,"1425 Montana Ave, Santa Monica, CA 90403"
-118.446981,34.061192,Westwood,"1050 S Gayley Ave, Los Angeles, CA 90024"
-118.481209,34.033353,23rd & Wilshire Blvd,"2201 Wilshire Blvd, Santa Monica, CA 90403"
-118.465394,34.02194,Santa Monica Pico,"2121 Cloverfield Blvd, Santa Monica, CA 90404"
-118.3983616,34.06946593,Beverly Hills,"239 N Crescent Dr, Beverly Hills, CA 90210"
-118.360767,34.091753,West Hollywood,"7871 Santa Monica Blvd, West Hollywood, CA 90046"
-118.46977,34.001301,Venice,"225 Lincoln Blvd, Venice, CA 90291"
-118.438023,34.022596,West Los Angeles,"11666 National Blvd, Los Angeles, CA 90064"
-118.36057,34.070373,3rd & Fairfax,"6350 W 3rd St, Los Angeles, CA 90036"
-118.245876,34.150993,Glendale,"331 N Glendale Ave, Glendale, CA 91206"
-118.2585693,34.1028973,Silver Lake,"2520 Glendale Blvd, Los Angeles, CA 90039"
-118.4182426,33.97693119,Playa Vista,"12746 W Jefferson Blvd, Playa Vista, CA 90094"
-118.14776,34.1381,Arroyo,"465 S Arroyo Pkwy, Pasadena, CA 91105"
-118.257533,34.045919,Downtown Los Angeles,"788 S Grand Ave, Los Angeles, CA 90017"
-118.0721852,34.15110506,Pasadena,"3751 E Foothill Blvd, Pasadena, CA 91107"
-118.3928009,33.90631911,Plaza El Segundo,"760 S Sepulveda Blvd, El Segundo, CA 90245"
-118.389355,33.847366,Redondo Beach,"405 N Pacific Coast Hwy, Redondo Beach, CA 90277"
-118.330984,33.792447,Torrance,"2655 Pacific Coast Hwy, Torrance, CA 90505"
-118.144204,33.829837,Long Beach Lakewood,"3881 Lakewood Blvd, Ste A, Long Beach, CA 90808"
-117.692489,34.122944,Upland,"2153 W Baseline Rd, Upland, CA 91784"
-118.111403,33.757522,Long Beach,"6400 E Pacific Coast Hwy, Ste A-100, Long Beach, CA 90803"
-117.851382,33.91008,Brea,"3301 E Imperial Hwy, Brea, CA 92823"
-117.9905145,33.73120892,Huntington Beach,"7881 Edinger Ave , Suite 150, Huntington Beach, CA 92647"
-117.952253,33.673401,Brookhurst,"10081 Adams Ave, Huntington Beach, CA 92646"
-117.8256,33.6963,Jamboree,"2847 Park Ave, Tustin, CA 92782"
-117.8738096,33.61662616,Newport Beach,"415 Newport Center Dr, Newport Beach, CA 92660"
-117.744356,33.64616259,Irvine,"8525 Irvine Center Dr, Irvine, CA 92618"
-117.783815,33.543856,Laguna Beach,"283 Broadway St, Laguna Beach, CA 92651"
-117.712557,33.55445742,Laguna Niguel,"23932 Aliso Creek Rd, Laguna Niguel, CA 92677"
-116.399894,33.725591,Palm Desert,"44-459 Town Center Way, Palm Desert, CA 92260"
-117.2519567,32.98120192,Del Mar,"2600 Via De La Valle, Ste 100, Del Mar, CA 92014"
-117.230611,32.868764,La Jolla,"8825 Villa La Jolla Dr, La Jolla, CA 92037"
-117.158201,32.748193,Hillcrest,"711 University Ave, San Diego, CA 92103"
-104.797551,38.94201627,Pikes Peak,"7635 N Academy Blvd, Colorado Springs, CO 80920-3207"
-107.0827613,39.3870291,Roaring Fork,"340 Reed St, Basalt, CO 81621"
-106.1004297,39.5885327,Frisco,"261 Lusher Ct, Frisco, CO 80443"
-105.28081,40.026016,Ideal Market Boulder,"1275 Alpine Ave, Boulder, CO 80304"
-105.25593,40.023856,Pearl,"2905 Pearl St, Boulder, CO 80301"
-105.248489,39.983106,Boulder Table Mesa,"695 S Broadway, Boulder, CO 80305"
-105.161477,39.736505,Colfax,"14357 W Colfax Ave, Golden, CO 80401"
-105.1679136,39.9565471,Superior,"303 Marshall Rd, Superior, CO 80027"
-105.092234,39.623154,Governor's Ranch,"5155 S Wadsworth Blvd, Littleton, CO 80123-2217"
-105.0808543,39.70861913,Belmar,"444 S Wadsworth Blvd, Lakewood, CO 80226"
-105.1294459,40.14519213,Longmont,"1250 South Hover Rd, Ste 300, Longmont, CO 80501"
-105.044668,39.913407,Bradburn,"4451 Main St, Westminster, CO 80031"
-105.001449,39.754583,Union Station,"1701 Wewatta St, Denver, CO 80202"
-104.979965,39.695988,Washington Park,"1111 S Washington St, Denver, CO 80210"
-104.97578,39.733292,Ideal Market Denver,"900 E 11th Ave, Denver, CO 80218"
-104.962116,39.592051,SouthGlenn,"6853 S York , St #119, Centennial, CO 80122"
-105.078926,40.558999,Fort Collins,"2201 S College Ave, Fort Collins, CO 80525"
-104.9579425,39.71852283,Cherry Creek,"2375 E 1st Ave, Denver, CO 80206"
-104.942097,39.545043,Highlands Ranch,"9366 S Colorado Blvd, Ste B, Highlands Ranch, CO 80126"
-104.939652,39.700741,Colorado Blvd,"870 S Colorado Blvd, Glendale, CO 80246"
-104.901844,39.652019,Tamarac,"7400 E Hampden Ave, Unit D, Denver, CO 80231"
-104.87755,39.42338,Castle Rock,"6384 Promenade Pkwy, Castle Rock, CO 80108"
-73.623931,41.033122,Greenwich,"90 E Putnam Ave, Greenwich, CT 06830"
-73.475708,41.377866,Danbury,"5C Sugar Hollow Rd, Danbury, CT 06810"
-73.476173,41.073271,Darien,"150 Ledge Rd, Darien, CT 06820"
-73.379973,41.128085,Westport,"399 Post Rd W, Westport, CT 06880"
-73.240134,41.158234,Fairfield,"350 Grasmere Ave, Fairfield, CT 06824"
-73.025162,41.248251,Milford,"1686 Boston Post Road, Milford, CT 06460"
-72.745477,41.784729,Bishops Corner,"340 N Main St, West Hartford, CT 06117"
-72.73893213,41.76096264,West Hartford,"50 Raymond Rd, West Hartford, CT 06107"
-72.607763,41.714842,Glastonbury,"55 Welles St, Glastonbury, CT 06033"
-86.42003848,30.39023957,Destin,"4402 Legendary Dr, Destin, FL 32541"
-84.269918,30.462981,Tallahassee,"1817 Thomasville Rd, Tallahassee, FL 32303"
-82.375989,29.625708,Gainesville,"3490 SW Archer Rd, Gainesville, FL 32608"
-81.6259731,30.1849746,Jacksonville,"10601 San Jose Blvd, Jacksonville, FL 32257"
-82.73576,28.016949,Clearwater,"27001 US 19 N, Clearwater, FL 33761"
-81.390046,30.270282,Jacksonville Beach,"2050 3rd St S, Jacksonville Beach, FL 32250"
-82.50414593,28.09317937,Carrollwood,"3802 Northdale Blvd, Tampa, FL 33624-1833"
-82.508813,27.956928,Tampa,"1548 N Dale Mabry Hwy, Tampa, FL 33607"
-82.541217,27.337654,Sarasota,"1451 1st St, Sarasota, FL 34236"
-82.464528,27.386894,University Station,"5298 University Pkwy, Sarasota, FL 34243"
-81.381454,28.664256,Altamonte Springs,"305 E Altamonte Dr, Ste 1000, Altamonte Springs, FL 32701"
-81.47673732,28.44918496,Orlando,"8003 Turkey Lake Rd, Phillips Crossing, Orlando, FL 32819"
-81.363309,28.606846,Winter Park North,"1030 N Orlando Ave, Winter Park, FL 32789"
-77.0247,38.9196,Florida Avenue,"967 Florida Avenue NW, Washington, DC 20001"
-81.842444,26.547953,Fort Myers,"6891 Daniels Pkwy, Suite 100, Fort Myers, FL 33912"
-81.800214,26.254626,Naples,"9101 Strada Pl, Naples, FL 34108"
-80.09433312,26.84823415,Palm Beach Gardens,"11701 Lake Victoria Gardens Ave, Whole Foods Market, Palm Beach Gardens, FL 33410"
-80.206286,26.64126,Wellington,"2635 FL-7, Wellington, FL 33414"
-80.08922987,26.72068198,West Palm Beach,"1845 Palm Beach Lakes Blvd, West Palm Beach, FL 33401"
-80.25666611,26.2425174,Coral Springs,"810 University Dr, Coral Springs, FL 33071"
-80.34972185,26.00651076,Pembroke Pines,"14956 Pines Blvd, Pembroke Pines, FL 33027"
-80.079591,26.439288,Delray Beach,"680 Linton Blvd, Delray Beach, FL 33444"
-80.11492607,26.36599434,Boca Raton,"1400 Glades Rd, Ste 110, Boca Raton, FL 33431"
-80.25195291,26.09671937,Davie,"1903 S University Dr, Davie, FL 33324"
-80.101005,26.261521,Pompano Beach,"2411 N Federal Highway, Pompano Beach, FL 33062"
-80.117585,26.153671,Fort Lauderdale,"2000 N Federal Hwy, Fort Lauderdale, FL 33305"
-80.137952,26.100564,17th Street,"501 SE 17th St, Fort Lauderdale, FL 33316"
-80.3233,25.6734,Dadeland,"7930 SW 104th St, Miami, FL 33156"
-80.140821,25.971134,Aventura,"21105 Biscayne Blvd, Aventura, FL 33180"
-80.284659,25.706282,Coral Gables,"6701 Red Rd, Coral Gables, FL 33143"
-80.165262,25.887864,North Miami,"12150 Biscayne Blvd, North Miami, FL 33181"
-80.189606,25.772077,Downtown Miami,"299 SE 3rd Ave, Miami, FL 33131"
-80.14119,25.780968,South Beach,"1020 Alton Rd, Miami Beach, FL 33139"
-84.589564,33.997529,Kennesaw,"1300 Ernest Barrett Pkwy, Kennesaw, GA 30144"
-84.42777085,33.98099319,Merchants Walk,"1311 Johnson Ferry Rd NE, Ste 580, Marietta, GA 30068"
-84.429551,33.850181,Northside Buckhead,"3535 Northside Pkwy, Atlanta, GA 30327"
-84.379946,33.918073,Sandy Springs,"5930 Roswell Rd, Atlanta, GA 30328"
-84.381148,33.840841,Buckhead,"77 West Paces Ferry Rd NW, Atlanta, GA 30305"
-84.389,33.7864,Midtown Atlanta,"22 14th St NW, Atlanta, GA 30309"
-84.278488,34.06934,Avalon,"2800 Old Milton Pkwy, Alpharetta, GA 30009"
-84.365756,33.774805,Ponce de Leon,"650 Ponce de Leon Ave NE, Atlanta, GA 30308"
-84.314124,33.88506,Chamblee,"5001 Peachtree Blvd, Bldg 300, Atlanta, GA 30341"
-84.28424,33.792778,Decatur,"1555 Church St, Decatur, GA 30033"
-84.183577,34.013142,Johns Creek,"5945 State Bridge Rd, Duluth, GA 30097"
-81.071326,32.043193,Savannah,"1815 E Victory Dr , Ste 101, Savannah, GA 31404"
-156.464368,20.891489,Maui,"70 E Kaahumanu Ave, Kahului, HI 96732"
-157.743038,21.393653,Kailua,"629 Kailua Rd, Ste 100, Kailua, HI 96734"
-157.786736,21.277528,Honolulu (Kahala Mall),"4211 Wai'alae Ave, Ste 2000, Honolulu, HI 96816"
-157.852284,21.294663,Queen,"388 Kamakee St, Ste 100, Honolulu, HI 96814"
-93.76099722,41.59807959,West Des Moines,"4100 University Ave, West Des Moines, IA 50266"
-116.1945271,43.60778205,Boise,"401 S Broadway Ave, Boise, ID 83702"
-88.20000231,41.74889505,Naperville,"2607 W 75th St, Naperville, IL 60540"
-88.10182521,41.83021764,Wheaton,"89 Danada Square East, Wheaton, IL 60189"
-88.0440531,42.15935023,Kildeer,"20281 Rand Rd, Kildeer, IL 60047"
-88.036448,42.04245,Schaumburg,"750 N Martingale Rd, Schaumburg, IL 60173"
-87.960497,41.893908,Elmhurst,"215 S IL Rte 83, Elmhurst, IL 60126"
-87.943845,42.241203,Vernon Hills,"851 N Milwaukee Ave, Vernon Hills, IL 60061"
-87.949487,41.773077,Willowbrook,"6300 Kingery Hwy, Willowbrook, IL 60527"
-87.916802,41.817478,Hinsdale,"500 E Ogden Ave, Hinsdale, IL 60521"
-87.848029,42.166232,Deerfield,"760 Waukegan Rd, Deerfield, IL 60015"
-87.854975,41.6127,Orland Park,"15260 South La Grange Road, Orland Park, IL 60462"
-87.824619,42.010708,Park Ridge,"225 W Touhy Ave, Park Ridge, IL 60068"
-87.80082243,42.10662879,Northbrook,"840 Willow Rd, Suite M, Northbrook, IL 60062"
-87.806366,41.887286,River Forest,"7245 Lake St, River Forest, IL 60305"
-87.748827,41.990369,Sauganash,"6020 N Cicero Ave, Chicago, IL 60646"
-87.702023,42.067922,Green Bay Road,"2748 Green Bay Rd, Evanston, IL 60201"
-87.679494,42.047623,Downtown Evanston,"1640 Chicago Ave, Evanston, IL 60201"
-87.684647,41.717723,Evergreen Park,"9600 S Western Ave, Evergreen Park, IL 60805"
-87.6684,41.9399,Lakeview,"3201 N. Ashland Ave, Chicago, IL 60657"
-87.660049,41.99122,Chicago Edgewater,"6009 N Broadway, Chicago, IL 60660"
-87.653469,41.925134,DePaul,"959 W Fullerton Ave, Chicago, IL 60614"
-87.65311279,41.90912822,Lincoln Park,"1550 N Kingsbury St, Chicago, IL 60642"
-87.649734,41.948349,Halsted and Waveland,"3640 N Halsted St, Chicago, IL 60613"
-87.6471,41.88192,West Loop,"1 N Halsted St, Chicago, IL 60661"
-87.646357,41.780645,Englewood,"832 W 63rd St, Chicago, IL 60621"
-87.638494,41.868502,South Loop,"1101 S Canal St Ste 107, Ste 107, Chicago, IL 60607"
-87.629444,41.895199,Gold Coast,"30 W Huron St, Chicago, IL 60654"
-87.620864,41.891671,Streeterville,"255 E Grand Ave, Chicago, IL 60611"
-87.588171,41.802025,Hyde Park,"5118 S Lake Park Ave, Chicago, IL 60615"
-86.137108,39.91418,Eighty-Sixth St.,"1300 E 86th St, Indianapolis, IN 46240"
-86.152368,39.768591,Market Square,"320 E Market St, Indianapolis, IN 46204"
-87.47060904,41.51927963,Schererville,"199 US-41, Schererville, IN 46375"
-86.185709,41.699025,Mishawaka,"4230 Grape Rd, Mishawaka, IN 46545-1007"
-86.131076,39.999084,Carmel,"14598 Clay Terrace Blvd, Carmel, IN 46032"
-94.583348,39.034274,Kansas City,"301 E 51st St, Kansas City, MO 64112"
-97.22792907,37.70898391,Wichita,"1423 N Webb Rd, Ste 101, Wichita, KS 67206"
-94.75657432,38.91146412,Olathe," 14615 W 119th St, Olathe, KS 66062"
-94.662459,38.911569,Overland Park,"6621 W 119th St, Overland Park, KS 66209"
-85.627028,38.248506,Louisville,"4944 Shelbyville Rd, Louisville, KY 40207"
-84.52861599,37.9775882,Lexington,"4059 Finn Way, Lexington, KY 40517"
-93.72698291,32.44396978,Shreveport,"1380 E 70th St, Shreveport, LA 71105"
-92.05194491,30.16090999,Ambassador Caffery,"4247 Ambassador Caffery Pkwy, Lafayette, LA 70508"
-91.11119368,30.43211493,Baton Rouge,"7529 Corporate Blvd, Baton Rouge, LA 70809"
-90.08587181,30.39053692,Mandeville,"3450 Hwy 190, Mandeville, LA 70471"
-90.15897266,30.00200103,Veterans,"3420 Veterans Memorial Blvd, Metairie, LA 70002"
-90.117495,29.921124,Arabella Station,"5600 Magazine St, New Orleans, LA 70115"
-90.084799,29.9672,Broad Street,"300 N Broad St, New Orleans, LA 70119"
-72.55537,42.353265,Hadley,"327 Russell St, Hadley, MA 01035"
-71.746577,42.275403,Shrewsbury,"193 Boston Turnpike, Shrewsbury, MA 01545"
-71.420638,42.567798,Westford,"160 Littleton Rd, Westford, MA 01886"
-71.4318,42.3612,Sudbury,"536 Boston Post Rd, Sudbury, MA 01776"
-71.421094,42.298595,Framingham,"575 Worcester Rd, Framingham, MA 01701"
-71.461699,42.111262,Bellingham,"255 Hartford Ave, Bellingham, MA 02019"
-71.273584,42.491232,Bedford,"170 Great Road, Bedford, MA 01730"
-71.28560936,42.30259091,Wellesley,"442 Washington St, Wellesley, MA 02482"
-71.144555,42.66094,Andover,"40 Railroad St, Andover, MA 01810"
-71.206404,42.330017,Newton,"916 Walnut St, Newton, MA 02461"
-71.200137,42.354128,Newtonville,"647 Washington St, Newton, MA 02458"
-71.163527,42.460479,Woburn,"400 Cambridge Rd, Woburn, MA 01801"
-71.159388,42.416395,Arlington MA,"808 Massachusetts Ave, Arlington, MA 02476"
-71.141721,42.389065,Fresh Pond,"200 Alewife Brook Pkwy, Cambridge, MA 02138"
-71.17785206,42.2326354,Dedham,"300 Legacy Pl, Dedham, MA 02026"
-71.126707,42.417132,Medford,"2151 Mystic Valley Pkwy, Medford, MA 02155"
-71.140425,42.342859,Brighton,"15 Washington St, Brighton, MA 02135"
-71.114159,42.361094,River Street,"340 River St, Cambridge, MA 02139"
-71.103179,42.375849,Somerville,"45 Beacon St, Somerville, MA 02143"
-71.108316,42.346144,Brookline,"1028 Beacon St, Brookline, MA 02446"
-71.102353,42.368135,Prospect Street,"115 Prospect St, Cambridge, MA 02139"
-71.110961,42.321389,Jamaica Plain,"413 Centre St, Jamaica Plain, MA 02130"
-71.062445,42.464746,Melrose,"880 Main St, Melrose, MA 02176"
-71.087272,42.343962,Symphony,"15 Westland Ave, Boston, MA 02115"
-71.066334,42.375645,Charlestown,"27 Austin St, Charlestown, MA 02129"
-71.03224126,42.51418438,Lynnfield,"427 Walnut St, Lynnfield, MA 01940"
-71.065447,42.3619,Charles River Plaza,"181 Cambridge St, Boston, MA 02114"
-71.063018,42.345462,South End,"348 Harrison Ave, Boston, MA 02118"
-70.9051068,42.47917769,Swampscott,"331 Paradise Rd, Swampscott, MA 01907"
-70.87945,42.573537,Beverly,"150 Brimbal Ave, Beverly, MA 01915"
-70.9535799,42.17207393,South Weymouth,"35 Pleasant St, South Weymouth, MA 02190"
-70.90784615,42.17894401,Hingham,"94 Derby St, Hingham, MA 02043"
-70.301776,41.672393,Hyannis,"990 Iyannough Rd, Hyannis, MA 02601"
-77.237729,39.122641,Kentlands,"316 Kentlands Blvd, Gaithersburg, MD 20878"
-77.112956,39.042978,Rockville,"11355 Woodglen Dr, Rockville, MD 20852"
-77.104163,38.966156,Bethesda,"5269 River Rd, Bethesda, MD 20816"
-77.086646,38.960896,Friendship Heights,"4420 Willard Ave, Chevy Chase, MD 20815"
-77.024091,38.996059,Silver Spring,"833 Wayne Ave, Silver Spring, MD 20910"
-76.936683,38.969186,Riverdale Park,"6621-B Baltimore Ave, Riverdale, MD 20737"
-76.855891,39.213938,Columbia - Maryland,"10275 Little Patuxent Pkwy, Columbia, MD 21044"
-76.649505,39.368299,Mt. Washington,"1330 Smith Ave, Baltimore, MD 21209"
-76.5985,39.2829,Harbor East,"711 S Central Ave, Baltimore, MD 21202"
-76.5401845,38.982091,Annapolis,"200 Harker Pl, Ste 100, Annapolis, MD 21401"
-70.258754,43.663298,Portland - Maine,"2 Somerset St, Portland, ME 04101"
-84.453004,42.728207,East Lansing,"2750 E Grand River Ave, East Lansing, MI 48823"
-83.758168,42.248543,Cranbrook,"990 W Eisenhower Pkwy, Ann Arbor, MI 48103"
-83.698198,42.258059,Ann Arbor,"3135 Washtenaw Ave, Ann Arbor, MI 48104"
-83.36286065,42.52924144,West Bloomfield,"7350 Orchard Lake Rd, West Bloomfield, MI 48322"
-83.191685,42.68214,Rochester Hills,"2918 Walton Blvd, Rochester Hills, MI 48309"
-83.194466,42.546736,Birmingham,"2100 E Maple Rd, Birmingham, MI 48009"
-83.05668135,42.34849281,Detroit,"115 Mack Ave, Detroit, MI 48201"
-93.44569,44.973958,Minnetonka,"1001 Plymouth Rd, Minnetonka, MN 55305"
-93.435945,45.091528,Maple Grove,"12201 Elm Creek Blvd N, Maple Grove, MN 55369"
-93.328011,44.867687,Edina,"7401 France Ave S, Edina, MN 55435"
-93.322363,44.947565,Uptown Minneapolis,"3060 Excelsior Blvd, Minneapolis, MN 55416"
-93.269054,44.982511,Hennepin,"222 Hennepin Ave, Minneapolis, MN 55401"
-93.166733,44.946689,St Paul,"1575 Selby Ave, St. Paul, MN 55104"
-92.9304282,44.94313312,Woodbury,"305 Radio Dr, Woodbury, MN 55125"
-90.515871,38.622092,Town and Country,"1160 Town and Country Crossing Dr, Town and Country, MO 63017"
-90.34771794,38.6270529,Galleria,"1601 S Brentwood Blvd, St. Louis, MO 63144"
-90.26165498,38.64198815,Central West End,"4577 W Pine Blvd, St. Louis, MO 63108"
-90.149828,32.354698,Jackson,"4500 I-55 North, Jackson, MS 39211"
-82.554715,35.601892,Asheville,"70 Merrimon Ave, Asheville, NC 28801"
-82.52312381,35.58238676,East Asheville,"4 S Tunnel Rd, Ste 100, Asheville, NC 28805"
-82.521395,35.501038,South Asheville,"1856 Hendersonville Rd, Asheville, NC 28803"
-80.871661,35.444104,Lake Norman,"9129 Sam Furr Rd, Huntersville, NC 28078"
-80.8465,35.2212,Uptown Charlotte,"400 E Stonewall St, Ste. A, Charlotte, NC 28202"
-80.830176,35.147279,Charlotte,"6610 Fairview Rd, Charlotte, NC 28210"
-80.76731725,35.05322873,Waverly,"7221 Waverly Walk Ave, Charlotte, NC 28277"
-80.273814,36.09418,Winston-Salem,"41 Miller St, Winston-Salem, NC 27104"
-79.834028,36.085624,Greensboro Friendly,"3202 W Friendly Ave, Greensboro, NC 27408"
-79.027569,35.934529,Chapel Hill,"81 S Elliot Rd, Chapel Hill, NC 27514"
-78.920644,36.007046,Durham,"621 Broad St, Durham, NC 27705"
-78.882466,35.833593,West Cary,"5055 Arco St, Cary, NC 27519"
-78.777234,35.737361,Cary,"102B New Waverly Pl, Cary, NC 27518"
-78.686355,35.802456,Raleigh,"3540 Wade Ave, Raleigh, NC 27607"
-78.65054925,35.89927263,North Raleigh,"8710 Six Forks Rd, Raleigh, NC 27615"
-77.900814,34.213686,Wilmington,"3804 Oleander Dr, Wilmington, NC 28403"
-96.638998,40.81291,Lincoln,"6055 O St, Lincoln, NE 68510"
-96.068483,41.261903,Omaha,"10020 Regency Cir, Omaha, NE 68114"
-71.47653996,42.95464618,Bedford New Hampshire,"121 S River Rd, Bedford, NH 03110"
-71.496514,42.77957,Nashua,"255 Amherst St, Nashua, NH 03063"
-75.01138446,39.91587751,Cherry Hill,"1558 Kings Hwy N, Cherry Hill, NJ 08034"
-74.937997,39.908072,Marlton,"940 Rt 73 N, Marlton, NJ 08053"
-74.668208,40.308146,Princeton,"3495 US Rt 1 S, Princeton, NJ 08540"
-74.562346,40.576239,Bridgewater,"319 Chimney Rock Rd, Bound Brook, NJ 08805"
-74.488784,40.799238,Morristown,"110 Washington St, Morristown, NJ 07960"
-74.431896,40.875332,Parsippany,"60 Waterview Blvd, Parsippany, NJ 07054"
-74.405429,40.753479,Rose City,"222 Main St, Madison, NJ 07940"
-74.366,40.5398,Metuchen,"645 Middlesex Ave, Metuchen, NJ 08840"
-74.28682615,40.71703832,Millburn - Union,"2245 Springfield Ave, Vauxhall, NJ 07088"
-74.30426613,40.63152359,Clark,"1255 Raritan Rd, Unit 150, Clark, NJ 07066"
-74.226614,40.930789,Wayne,"560 Valley Rd, Wayne, NJ 07470"
-74.248906,40.804218,West Orange,"235 Prospect Ave, West Orange, NJ 07052"
-74.223046,40.818472,Montclair,"701 Bloomfield Ave, Montclair, NJ 07042"
-74.30932204,40.35191499,Marlboro,"113 Route 9 South, Marlboro, NJ 07726"
-74.122564,40.978372,Ridgewood,"44 Godwin Ave, Ridgewood, NJ 07450"
-74.17011,40.740059,Newark,"633 Broad St, Newark, NJ 07102"
-74.05734528,40.91384342,Paramus,"300 Bergen Town Center, Paramus, NJ 07652"
-74.022937,40.761809,Weehawken,"1400 Waterfront Terrace, Weehawken, NJ 07086"
-73.95634458,40.97068755,Closter,"45 Vervalen St, Closter, NJ 07624"
-73.973742,40.824835,Edgewater,"905 River Rd, Edgewater, NJ 07020"
-74.087337,40.375373,Middletown,"471 St Rt 35 N, Red Bank, NJ 07701-5036"
-74.056864,40.154645,Spring Lake Wall,"1933 NJ-35, Wall, NJ 07719"
-106.605117,35.102702,Indian School Plaza,"2103 Carlisle Blvd NE, Albuquerque, NM 87110"
-106.556026,35.146488,Academy,"5815 Wyoming Blvd NE, Albuquerque, NM 87109"
-105.950174,35.678896,Santa Fe (Cerrillos),"753 Cerrillos Rd, Santa Fe, NM 87505"
-119.7868779,39.46884037,Reno,"6139 S Virginia St, Reno, NV 89502"
-115.288182,36.1577904,Fort Apache,"8855 W Charleston Blvd, Las Vegas, NV 89117"
-115.250074,36.19757,Tenaya," 7250 W Lake Mead Blvd, Las Vegas, NV 89128"
-115.1743847,36.06744919,Las Vegas Blvd,"6689 Las Vegas Blvd, Las Vegas, NV 89119"
-115.0825418,36.02327222,Henderson,"100 S Green Valley Pkwy, Henderson, NV 89012"
-74.011563,40.715619,Tribeca,"270 Greenwich St, New York, NY 10007"
-73.999959,40.752762,Manhattan West,"450 W 33rd St, New York, NY 10001"
-73.995347,40.745113,Chelsea,"250 7th Ave, New York, NY 10001"
-73.983007,40.767879,Columbus Circle,"10 Columbus Cir, Ste Sc101, New York, NY 10019"
-73.991243,40.734741,Union Square,"4 Union Square S, New York, NY 10003"
-73.984832,40.754632,Bryant Park,"1095 6th Ave, New York, NY 10036"
-73.992409,40.723779,Bowery,"95 East Houston St, New York, NY 10002"
-73.9668,40.79417,Upper West Side,"808 Columbus Ave, New York, NY 10025"
-73.966348,40.75958,Midtown East (E 57th St),"226 E 57th St, New York, NY 10022"
-73.946138,40.807597,Harlem,"100 W 125th St, New York, NY 10027"
-73.95295,40.779742,Upper East Side,"1551 3rd Ave, New York, NY 10128"
-78.816984,42.979048,Buffalo,"3139 Sheridan Dr, Amherst, NY 14226"
-73.81888489,42.7089555,Albany,"1425 Central Ave, Albany, NY 12205"
-74.011742,40.654445,Industry City,"167 41st St, Brooklyn, NY 11232"
-73.988853,40.675028,Third and 3rd (Brooklyn),"214 3rd St , Brooklyn, NY 11215"
-73.97841,40.686609,Fort Greene,"292 Ashland Pl, Brooklyn, NY 11217"
-73.959802,40.716168,Williamsburg,"238 Bedford Ave, Brooklyn, NY 11249"
-73.85649692,40.96171562,Yonkers,"1 Ridge Hill Blvd, Yonkers, NY 10710"
-73.75497,41.177948,Chappaqua,"480 N Bedford Rd, Chappaqua, NY 10514"
-73.758904,41.028294,White Plains,"110 Bloomingdale Rd, White Plains, NY 10605"
-73.67545371,40.99254119,Port Chester,"575 Boston Post Road, Port Chester, NY 10573"
-73.670765,40.797214,Manhasset,"2101 Northern Blvd, Manhasset, NY 11030"
-73.60778,40.7428,Westbury,"867 East Gate Blvd, Garden City, NY 11530"
-73.534703,40.788943,Jericho,"429 North Broadway, Jericho, NY 11753-2106"
-73.284123,40.838117,Commack,"120 Veterans Memorial Hwy #34, Commack, NY 11725"
-73.12585,40.869705,Lake Grove,"120 New Moriches Rd, Lake Grove, NY 11755"
-84.447324,39.14547,Cincinnati,"2693 Edmondson Rd, Cincinnati, OH 45209"
-84.373899,39.205289,Kenwood,"5901 E Galbraith Rd, Ste 105, Cincinnati, OH 45236"
-84.31658604,39.30760702,Mason,"5805 Deerfield Blvd, Mason, OH 45040"
-84.190303,39.626787,Dayton,"1050 Miamisburg Centerville Rd, Dayton, OH 45458"
-83.621639,41.683061,Toledo,"3420 Secor Rd, Toledo, OH 43606"
-83.086634,40.098628,Columbus,"3670 W Dublin-Granville Rd, Columbus, OH 43235"
-83.05262347,40.00659508,Upper Arlington,"1555 W Lane Ave, Upper Arlington, OH 43221"
-82.909634,40.056875,Easton,"4100 Easton Gateway Dr, Columbus, OH 43219"
-81.840031,41.478792,Rocky River,"19607 Detroit Rd, Rocky River, OH 44116"
-81.53673331,41.5008555,Cedar Center,"13998 Cedar Rd, University Heights, OH 44118"
-81.571348,41.110953,Akron,"1745 W Market St, Akron, OH 44313"
-81.484869,41.45009,Orange Village,"50 Wall St, Orange, OH 44122"
-97.530387,35.534037,Oklahoma City,"6001 North Western Ave, Oklahoma City, OK 73118"
-95.97313,36.104769,Brookside,"1401 E 41st St, Tulsa, OK 74105"
-95.92337312,36.03065852,Yale,"9136 S Yale Ave, Tulsa, OK 74137"
-121.265962,44.056252,Bend,"2610 NE Hwy 20, Bend, OR 97701"
-123.087863,44.050111,Eugene,"353 E Broadway, Eugene, OR 97401"
-122.751583,45.394432,Bridgeport,"7380 SW Bridgeport Rd, Tigard, OR 97224"
-122.6622406,45.41577625,Lake Oswego,"11 S State St, Lake Oswego, OR 97034"
-122.801781,45.442495,Greenway,"12220 SW Scholls Ferry Rd, Tigard, OR 97223"
-122.63672,45.523118,Laurelhurst,"2825 East Burnside St, Portland, OR 97214"
-122.683434,45.523508,Pearl District Portland,"1210 NW Couch St, Portland, OR 97209"
-122.61867,45.536961,Hollywood,"4301 NE Sandy Blvd, Portland, OR 97213"
-122.8771025,45.53377558,Tanasbourne,"9940 NE Cornell Rd, Hillsboro, OR 97124"
-122.651114,45.54906,Fremont - Oregon,"3535 NE 15th Ave, Portland, OR 97212"
-80.05287531,40.61225173,Wexford,"10576 Perry Hwy, Wexford, PA 15090"
-80.05813049,40.34603161,South Hills,"111 Siena Dr, Upper St. Clair, PA 15241"
-79.928943,40.458457,Pittsburgh,"5880 Centre Ave, Pittsburgh, PA 15206"
-76.313169,40.065349,Lancaster,"1563 Fruitville Pike, Lancaster, PA 17601"
-75.5668647,40.56440567,Allentown,"750 N Krocks Rd, Ste 301, Allentown, PA 18106"
-75.627998,40.0303,Exton,"175 N Pottstown Pike, Exton, PA 19341"
-75.54307077,39.86349887,Glen Mills,"475 Wilmington West Chester Pike, Glen Mills, PA 19342"
-75.411115,40.048876,Devon,"821 Lancaster Ave, Wayne, PA 19087"
-75.403903,39.987825,Newtown,"3737 West Chester Pike, Newtown Square, PA 19073"
-75.28110864,40.11418192,Plymouth Meeting,"500 W Germantown Pike, Plymouth Meeting, PA 19462"
-75.227542,40.188211,Spring House,"1111 N Bethlehem Pike, Spring House, PA 19477"
-75.2755867,40.0019522,Wynnewood,"15 E Wynnewood Rd, Wynnewood, PA 19096"
-75.174306,39.963185,Philly Center City,"2101 Pennsylvania Ave, Philadelphia, PA 19130"
-75.116061,40.107871,Jenkintown,"1575 The Fairway, Jenkintown, PA 19046"
-75.157883,39.942897,South Street,"929 South St, Philadelphia, PA 19147"
-71.456046,41.755906,Garden City Center,"151 Sockanosset Cross Rd, Cranston, RI 02920"
-71.408307,41.83714,University,"601 N Main St, Providence, RI 02904"
-71.386189,41.827787,Providence,"261 Waterman St, Providence, RI 02906"
-82.300837,34.825521,Greenville,"1140 Woodruff Rd, Greenville, SC 29607"
-80.975304,33.9931,Columbia,"702 Cross Hill Rd, Ste 300, Columbia, SC 29205-2084"
-80.716653,32.187478,Hilton Head Island,"50 Shelter Cove Ln, Hilton Head Island, SC 29928"
-79.996381,32.782649,West Ashley,"1125 Savannah Hwy, Charleston, SC 29407"
-79.889113,32.802162,Charleston,"923 Houston Northcutt Blvd, Mount Pleasant, SC 29464"
-89.894177,35.113149,Poplar Avenue,"5014 Poplar Ave, Memphis, TN 38117"
-89.80212448,35.08906383,Germantown,"7825 US Highway 72, Germantown, TN 38138"
-86.8185,36.103133,Green Hills,"4021 Hillsboro Pike, Nashville, TN 37215"
-86.7886,36.1563,Nashville Downtown,"1202 Broadway, Nashville, TN 37203"
-86.824652,35.934445,McEwen,"1566 W McEwen Dr, Franklin, TN 37067"
-85.31437339,35.06336956,Chattanooga,"301 Manufacturers Rd, Chattanooga, TN 37405"
-85.156119,35.023851,Chattanooga East,"1814 Gunbarrel Rd, Ste 100, Chattanooga, TN 37421"
-84.01555,35.933145,Knoxville,"6730 Papermill Dr NW, Knoxville, TN 37919"
-106.548039,31.834063,El Paso,"100 Pitt St, El Paso, TX 79912"
-97.41296,32.700021,Fort Worth,"3720 Vision Dr, Fort Worth, TX 76109"
-97.084357,33.072621,Highland Village,"4041 Waller Creek, Highland Village, TX 75077"
-97.155465,32.879212,Colleyville,"4801 Colleyvile Blvd, Colleyville, TX 76034"
-97.098904,32.766919,Parkway,"801 E Lamar, Arlington, TX 76011"
-96.960361,32.901281,Las Colinas,"6741 N MacArthur Blvd, Irving, TX 75039"
-96.796754,33.029281,Plano,"2201 Preston Rd, Plano, TX 75093"
-96.821423,32.953182,Addison,"5100 Belt Line Rd, Ste 1012, Addison, TX 75254"
-98.510941,29.613119,Vineyard,"18403 Blanco Rd, San Antonio, TX 78258"
-96.803062,32.907312,Forest,"11700 Preston Rd, Suite 714, Dallas, TX 75230"
-96.81471,32.82044,Highland Park,"4100 Lomo Alto Dr, Highland Park, TX 75219"
-96.801691,32.79542,Uptown Dallas,"2510 McKinney Ave, Dallas, TX 75201"
-96.76796226,32.86799526,Park Lane,"8190 Park Ln, Ste 351, Dallas, TX 75231"
-96.65660264,33.13100341,Fairview,"105 Stacy Rd, Fairview, TX 75069"
-96.69873256,32.99879421,Cityline,"1411 E Renner Rd, Richardson, TX 75082"
-98.480574,29.493296,Alamo Quarry,"255 E Basse Rd, Ste 130, San Antonio, TX 78209"
-96.752321,32.815669,Lakewood,"2118 Abrams Rd, Dallas, TX 75214"
-97.81767839,30.53573895,Cedar Park,"5001 183 Toll Rd, Bldg A, Ste 100, Cedar Park, TX 78613"
-97.937572,30.307525,Bee Cave,"12601 Hill Country Blvd, Bee Cave, TX 78738"
-97.841947,30.220346,Arbor Trails,"4301 W William Cannon, Bldg B, Suite 800, Austin, TX 78749"
-97.741483,30.389293,Gateway,"9607 Research Blvd, #300, Austin, TX 78759"
-97.720025,30.406373,Domain,"11920 Domain Dr, Austin, TX 78758"
-97.753388,30.270598,Lamar,"525 N Lamar Blvd, Austin, TX 78703"
-97.73363,30.26396,East Austin,"901 E 5th St, Ste 100, Austin, TX 78702"
-95.771282,29.712195,Katy,"6601 S Fry Rd, Katy, TX 77494"
-95.470834,30.169391,The Woodlands,"1925 Hughes Landing Blvd, Suite 100, The Woodlands, TX 77380"
-95.562013,29.998395,Champions,"10133 Louetta Rd, Houston, TX 77070"
-95.57052056,29.73506756,Westchase,"11041 Westheimer Rd, Houston, TX 77042"
-95.623382,29.600051,Sugar Land,"15900 Southwest Fwy, Sugar Land, TX 77478"
-95.499911,29.75252,Voss,"1407 S Voss Rd, Houston, TX 77057"
-95.46192,29.749298,Post Oak,"1700 Post Oak Blvd, Ste 100, Houston, TX 77056"
-95.3981,29.8139,Independence Heights,"101 N Loop W, Houston, TX 77018"
-95.441443,29.70693,Bellaire,"4004 Bellaire Blvd, Houston, TX 77025"
-95.418147,29.739315,Kirby,"2955 Kirby Dr, Houston, TX 77098"
-95.397559,29.758033,Montrose,"701 Waugh Dr, Houston, TX 77019"
-95.3807,29.7442,Midtown Houston,"515 Elgin St, Houston, TX 77006"
-111.835906,40.625077,Cottonwood Heights,"6930 S Highland Dr, Cottonwood Heights, UT 84121"
-111.85894,40.723719,Sugar House,"1131 E Wilmington Ave, Salt Lake City, UT 84106"
-111.871839,40.757926,Trolley Square,"544 S 700 E, Salt Lake City, UT 84102"
-111.546933,40.727189,Canyon Corners,"6598 N Landmark Dr, Park City, UT 84098"
-76.027984,36.85069,Virginia Beach,"1800 Laskin Rd, Virginia Beach, VA 23454"
-78.48925924,38.05968725,Charlottesville,"1797 Hydraulic Rd, Charlottesville, VA 22901"
-77.484275,39.068415,Ashburn,"19800 Belmont Chase Dr, Unit 160, Ashburn, VA 20147"
-77.37750289,38.85774522,Fair Lakes,"4501 Market Commons Dr, Fairfax, VA 22033"
-77.34918526,38.95171143,Reston,"11660 Plaza America Dr, Reston, VA 20190"
-77.262963,38.902421,Vienna,"143 Maple Ave E, Vienna, VA 22180"
-77.2331,38.9251,Tysons Corner,"1635 Boro Place, McLean, VA 22102"
-77.59958349,37.64789453,Short Pump,"11173 W Broad St, Glen Allen, VA 23060"
-77.205047,38.902898,Tysons,"7511 Leesburg Pike, Falls Church, VA 22043"
-77.234937,38.780044,Springfield,"8402 Old Keene Mill Rd, Springfield, VA 22152"
-77.091065,38.889049,Arlington VA,"2700 Wilson Blvd, Arlington, VA 22201"
-77.461533,37.557842,Richmond VA,"2024 W Broad St, Richmond, VA 23220"
-77.054583,38.862695,Pentagon City,"520 12th St South, Suite 100, Arlington, VA 22202"
-77.059969,38.804089,Old Town,"1700 Duke St, Alexandria, VA 22314"
-76.48956407,37.10389695,Newport News,"12090 Jefferson Ave, Ste 100, Newport News, VA 23606"
-77.079298,38.949055,Tenleytown,"4530 40th St NW, Tenley Circle, Washington, DC 20016"
-77.049016,38.900843,Foggy Bottom,"2201 I Street NW, Washington, DC 20037"
-77.033419,38.909371,P Street,"1440 P Street NW, Washington, DC 20005"
-77.005132,38.88026,South Capitol Hill,"101 H St SE, Washington, DC 20003"
-76.998054,38.900447,H Street,"600 H St NE, Washington, DC 20002"
-122.536071,47.227235,Chambers Bay,"3515 Bridgeport Way W, University Place, WA 98466"
-122.381926,47.560745,West Seattle,"4755 Fauntleroy Way SW, Ste 190, Seattle, WA 98116"
-122.321,47.6113,Madison Broadway,"1001 Broadway, Seattle, WA 98122"
-122.184588,47.618361,Bellevue,"888 116th Ave NE, Bellevue, WA 98004"
-122.337898,47.618249,Westlake,"2210 Westlake Ave, Seattle, WA 98121"
-122.3768223,47.63696928,Interbay,"2001 15th Ave W, Seattle, WA 98119"
-122.101703,47.666262,Redmond,"17991 Ne, Redmond Way, Redmond, WA 98052"
-122.316555,47.675254,Roosevelt Square,"1026 NE 64th St, Seattle, WA 98115"
-122.179711,47.711523,Kirkland,"12501 120th Ave NE, Kirkland, WA 98034"
-122.272471,47.819814,Lynnwood,"2800 SW 196th St, Ste 100, Lynnwood, WA 98036"
-122.461261,48.74363266,Bellingham Lakeway,"1030 Lakeway Dr, Bellingham, WA 98229"
-89.444164,43.074879,Madison,"3313 University Ave, Madison, WI 53705"
-88.05151012,43.07544237,Wauwatosa,"11100 W Burleigh St, Wauwatosa, WI 53222"
-87.88376223,43.06032381,Milwaukee,"2305 N Prospect Ave, Milwaukee, WI 53211"
-110.7940903,43.4636658,Jackson Wyoming,"1155 S Highway 89, Jackson, WY 83001"
